0 THOR ABLESTAR DEB
1 00210U 61015BE  13282.33163321  .00000411  00000-0  43241-3 0   358
2 00210 066.4587 229.7255 0049960 325.4958 198.1450 13.84449299623504
0 THOR ABLESTAR DEB
1 00210U 61015BE  13284.19804721  .00000440  00000-0  45748-3 0   367
2 00210 066.4588 225.1543 0050012 324.6123 140.1036 13.84451255623760
0 THOR ABLESTAR DEB
1 00210U 61015BE  13285.42881020  .00000373  00000-0  39848-3 0   371
2 00210 066.4589 222.1400 0050069 323.9831 154.1160 13.84452506623932
0 THOR ABLESTAR DEB
1 00210U 61015BE  13286.44158207  .00000405  00000-0  42619-3 0   385
2 00210 066.4590 219.6599 0050102 323.4589 161.6926 13.84453349624072
0 THOR ABLESTAR DEB
1 00210U 61015BE  13288.02141233  .00000613  00000-0  60989-3 0   394
2 00210 066.4590 215.7908 0050147 322.6495 115.4425 13.84455576624298
0 THOR ABLESTAR DEB
1 00210U 61015BE  13289.33364428  .00000483  00000-0  49520-3 0   407
2 00210 066.4589 212.5772 0050205 321.9713 175.5176 13.84457268624470
0 THOR ABLESTAR DEB
1 00210U 61015BE  13290.33964696  .00000513  00000-0  52182-3 0   415
2 00210 066.4588 210.1135 0050227 321.4786 149.3455 13.84458340624612
0 THOR ABLESTAR DEB
1 00210U 61015BE  13291.42246709  .00000499  00000-0  50989-3 0   421
2 00210 066.4587 207.4618 0050252 320.9391 146.0389 13.84459753624765
0 THOR ABLESTAR DEB
1 00210U 61015BE  13292.85755639  .00000517  00000-0  52547-3 0   430
2 00210 066.4585 203.9472 0050290 320.1820 098.4653 13.84461612624966
0 THOR ABLESTAR DEB
1 00210U 61015BE  13294.17656826  .00000485  00000-0  49701-3 0   448
2 00210 066.4583 200.7167 0050350 319.4662 192.3949 13.84463546625143
0 THOR ABLESTAR DEB
1 00210U 61015BE  13295.18815503  .00000505  00000-0  51473-3 0   452
2 00210 066.4583 198.2393 0050374 318.9632 194.0836 13.84464708625282
0 THOR ABLESTAR DEB
1 00210U 61015BE  13296.20170205  .00000483  00000-0  49559-3 0   467
2 00210 066.4584 195.7570 0050390 318.4704 205.5346 13.84466249625427
